{
  "type": "FeatureCollection",
  "features": [
    {
      "type": "Feature",
      "properties": {
        "norad_id": 44709,
        "name": "BEIDOU-3 IGSO-3 (C40)",
        "group": "beidou",
        "lat": 2.056999554237138,
        "lon": -75.72354123614144,
        "alt_km": 35981.021090289425,
        "timestamp": "2025-12-16T05:49:09.480268+00:00",
        "meta_object_name": "BEIDOU-3 IGSO-3 (C40)",
        "meta_object_id": "2019-073A",
        "meta_epoch": "2025-11-20T07:11:22.740000",
        "meta_mean_motion": 1.00250097,
        "meta_eccentricity": 0.0044538,
        "meta_inclination": 55.163,
        "meta_ra_of_asc_node": 283.159,
        "meta_arg_of_pericenter": 191.5856,
        "meta_mean_anomaly": 168.2409,
        "meta_ephemeris_type": 0,
        "meta_classification_type": "U",
        "meta_norad_cat_id": 44709,
        "meta_element_set_no": 999,
        "meta_rev_at_epoch": 2236,
        "meta_bstar": 0,
        "meta_mean_motion_dot": -2.06e-06,
        "meta_mean_motion_ddot": 0,
        "tle_line1": "1 44709U 19073A   25324.29956875 -.00000206  00000+0  00000+0 0  9998",
        "tle_line2": "2 44709  55.1630 283.1590 0044538 191.5856 168.2409  1.00250097 22360"
      },
      "geometry": {
        "type": "Point",
        "coordinates": [
          -75.72354123614144,
          2.056999554237138
        ]
      }
    },
    {
      "type": "Feature",
      "properties": {
        "norad_id": 44793,
        "name": "BEIDOU-3 M22 (C44)",
        "group": "beidou",
        "lat": 3.6092211395305998,
        "lon": 123.62410820722599,
        "alt_km": 21541.877834586463,
        "timestamp": "2025-12-16T05:49:09.480283+00:00",
        "meta_object_name": "BEIDOU-3 M22 (C44)",
        "meta_object_id": "2019-078A",
        "meta_epoch": "2025-12-13T07:06:19.529568",
        "meta_mean_motion": 1.86231771,
        "meta_eccentricity": 0.00057339,
        "meta_inclination": 54.1075,
        "meta_ra_of_asc_node": 306.366,
        "meta_arg_of_pericenter": 23.2965,
        "meta_mean_anomaly": 336.7192,
        "meta_ephemeris_type": 0,
        "meta_classification_type": "U",
        "meta_norad_cat_id": 44793,
        "meta_element_set_no": 999,
        "meta_rev_at_epoch": 4118,
        "meta_bstar": 0,
        "meta_mean_motion_dot": -9.7e-07,
        "meta_mean_motion_ddot": 0,
        "tle_line1": "1 44793U 19078A   25347.29605937 -.00000097  00000+0  00000+0 0  9999",
        "tle_line2": "2 44793  54.1075 306.3660 0005733  23.2965 336.7192  1.86231771 41181"
      },
      "geometry": {
        "type": "Point",
        "coordinates": [
          123.62410820722599,
          3.6092211395305998
        ]
      }
    },
    {
      "type": "Feature",
      "properties": {
        "norad_id": 44794,
        "name": "BEIDOU-3 M21 (C43)",
        "group": "beidou",
        "lat": 53.52070463068564,
        "lon": 24.638293383614677,
        "alt_km": 21518.891331272585,
        "timestamp": "2025-12-16T05:49:09.480294+00:00",
        "meta_object_name": "BEIDOU-3 M21 (C43)",
        "meta_object_id": "2019-078B",
        "meta_epoch": "2025-12-12T21:31:22.326816",
        "meta_mean_motion": 1.86227454,
        "meta_eccentricity": 0.00039343,
        "meta_inclination": 54.0813,
        "meta_ra_of_asc_node": 306.3451,
        "meta_arg_of_pericenter": 10.3646,
        "meta_mean_anomaly": 349.6338,
        "meta_ephemeris_type": 0,
        "meta_classification_type": "U",
        "meta_norad_cat_id": 44794,
        "meta_element_set_no": 999,
        "meta_rev_at_epoch": 4118,
        "meta_bstar": 0,
        "meta_mean_motion_dot": -9.6e-07,
        "meta_mean_motion_ddot": 0,
        "tle_line1": "1 44794U 19078B   25346.89678619 -.00000096  00000+0  00000+0 0  9991",
        "tle_line2": "2 44794  54.0813 306.3451 0003934  10.3646 349.6338  1.86227454 41181"
      },
      "geometry": {
        "type": "Point",
        "coordinates": [
          24.638293383614677,
          53.52070463068564
        ]
      }
    },
    {
      "type": "Feature",
      "properties": {
        "norad_id": 44864,
        "name": "BEIDOU-3 M19 (C41)",
        "group": "beidou",
        "lat": -55.405975008992584,
        "lon": -5.431550377552814,
        "alt_km": 21484.459381776553,
        "timestamp": "2025-12-16T05:49:09.480305+00:00",
        "meta_object_name": "BEIDOU-3 M19 (C41)",
        "meta_object_id": "2019-090A",
        "meta_epoch": "2025-12-10T23:47:39.658272",
        "meta_mean_motion": 1.86231263,
        "meta_eccentricity": 0.0017877,
        "meta_inclination": 56.392,
        "meta_ra_of_asc_node": 69.0187,
        "meta_arg_of_pericenter": 285.2046,
        "meta_mean_anomaly": 73.1126,
        "meta_ephemeris_type": 0,
        "meta_classification_type": "U",
        "meta_norad_cat_id": 44864,
        "meta_element_set_no": 999,
        "meta_rev_at_epoch": 4072,
        "meta_bstar": 0,
        "meta_mean_motion_dot": -6e-07,
        "meta_mean_motion_ddot": 0,
        "tle_line1": "1 44864U 19090A   25344.99143123 -.00000060  00000+0  00000+0 0  9990",
        "tle_line2": "2 44864  56.3920  69.0187 0017877 285.2046  73.1126  1.86231263 40726"
      },
      "geometry": {
        "type": "Point",
        "coordinates": [
          -5.431550377552814,
          -55.405975008992584
        ]
      }
    },
    {
      "type": "Feature",
      "properties": {
        "norad_id": 44865,
        "name": "BEIDOU-3 M20 (C42)",
        "group": "beidou",
        "lat": 7.1769595075045896,
        "lon": 73.68360311382921,
        "alt_km": 21513.526756432046,
        "timestamp": "2025-12-16T05:49:09.480316+00:00",
        "meta_object_name": "BEIDOU-3 M20 (C42)",
        "meta_object_id": "2019-090B",
        "meta_epoch": "2025-12-10T20:36:05.507712",
        "meta_mean_motion": 1.86231317,
        "meta_eccentricity": 0.0014897,
        "meta_inclination": 56.3937,
        "meta_ra_of_asc_node": 69.0576,
        "meta_arg_of_pericenter": 298.003,
        "meta_mean_anomaly": 60.7372,
        "meta_ephemeris_type": 0,
        "meta_classification_type": "U",
        "meta_norad_cat_id": 44865,
        "meta_element_set_no": 999,
        "meta_rev_at_epoch": 4070,
        "meta_bstar": 0,
        "meta_mean_motion_dot": -5.8e-07,
        "meta_mean_motion_ddot": 0,
        "tle_line1": "1 44865U 19090B   25344.85839708 -.00000058  00000+0  00000+0 0  9994",
        "tle_line2": "2 44865  56.3937  69.0576 0014897 298.0030  60.7372  1.86231317 40704"
      },
      "geometry": {
        "type": "Point",
        "coordinates": [
          73.68360311382921,
          7.1769595075045896
        ]
      }
    },
    {
      "type": "Feature",
      "properties": {
        "norad_id": 45344,
        "name": "BEIDOU-3 G2 (C60)",
        "group": "beidou",
        "lat": -1.2168493033404688,
        "lon": -107.60240957113695,
        "alt_km": 35777.24293981269,
        "timestamp": "2025-12-16T05:49:09.480328+00:00",
        "meta_object_name": "BEIDOU-3 G2 (C60)",
        "meta_object_id": "2020-017A",
        "meta_epoch": "2025-12-15T22:19:44.846688",
        "meta_mean_motion": 1.00273143,
        "meta_eccentricity": 0.00043871,
        "meta_inclination": 2.5031,
        "meta_ra_of_asc_node": 43.9298,
        "meta_arg_of_pericenter": 270.8917,
        "meta_mean_anomaly": 184.9901,
        "meta_ephemeris_type": 0,
        "meta_classification_type": "U",
        "meta_norad_cat_id": 45344,
        "meta_element_set_no": 999,
        "meta_rev_at_epoch": 2142,
        "meta_bstar": 0,
        "meta_mean_motion_dot": -1.2e-06,
        "meta_mean_motion_ddot": 0,
        "tle_line1": "1 45344U 20017A   25349.93038017 -.00000120  00000+0  00000+0 0  9996",
        "tle_line2": "2 45344   2.5031  43.9298 0004387 270.8917 184.9901  1.00273143 21426"
      },
      "geometry": {
        "type": "Point",
        "coordinates": [
          -107.60240957113695,
          -1.2168493033404688
        ]
      }
    },
    {
      "type": "Feature",
      "properties": {
        "norad_id": 45807,
        "name": "BEIDOU-3 G3 (C61)",
        "group": "beidou",
        "lat": -1.204211557313659,
        "lon": -77.0936456787698,
        "alt_km": 35787.036983634636,
        "timestamp": "2025-12-16T05:49:09.480339+00:00",
        "meta_object_name": "BEIDOU-3 G3 (C61)",
        "meta_object_id": "2020-040A",
        "meta_epoch": "2025-12-15T22:28:29.009568",
        "meta_mean_motion": 1.00272652,
        "meta_eccentricity": 0.00063409,
        "meta_inclination": 1.9989,
        "meta_ra_of_asc_node": 66.611,
        "meta_arg_of_pericenter": 308.2444,
        "meta_mean_anomaly": 157.6773,
        "meta_ephemeris_type": 0,
        "meta_classification_type": "U",
        "meta_norad_cat_id": 45807,
        "meta_element_set_no": 999,
        "meta_rev_at_epoch": 2023,
        "meta_bstar": 0,
        "meta_mean_motion_dot": -3.33e-06,
        "meta_mean_motion_ddot": 0,
        "tle_line1": "1 45807U 20040A   25349.93644687 -.00000333  00000+0  00000+0 0  9998",
        "tle_line2": "2 45807   1.9989  66.6110 0006340 308.2444 157.6773  1.00272652 20238"
      },
      "geometry": {
        "type": "Point",
        "coordinates": [
          -77.0936456787698,
          -1.204211557313659
        ]
      }
    }
  ]
}